STARLINK-30112
1 56306U 23056W   26061.16668981  .01168094  00000+0  55090-1 0  9994
2 56306  42.9996 250.5266 0001076 294.3107 250.5694 15.15840615  5818
STARLINK-30082
1 57509U 23113Q   26061.16668981  .01237589  00000+0  58026-1 0  9992
2 57509  42.9993  58.0361 0001490 259.3659 354.6006 15.15867827  5818
STARLINK-30835
1 58219U 23170P   26061.16668981  .02225475  00000+0  10351+0 0  9993
2 58219  42.9992 236.1804 0001614 276.6915 133.8737 15.15812676  5812
STARLINK-30905
1 58356U 23177F   26061.16668981  .02478465  00000+0  11384+0 0  9998
2 58356  42.9998  32.3852 0001379 297.1028 100.6205 15.15850238  5560
